IRIDIUM 106             
1 41917U 17003A   23292.49908537  .00000365  00000+0  12322-3 0  9992
2 41917  86.3956 134.6430 0001906  91.5360 268.6054 14.34222485353931
IRIDIUM 103             
1 41918U 17003B   23293.11432558  .00000414  00000+0  14071-3 0  9996
2 41918  86.3959 134.2881 0001766  75.1814 284.9577 14.34215741354059
IRIDIUM 109             
1 41919U 17003C   23292.84159967  .00000024  00000+0  13827-5 0  9993
2 41919  86.3956 134.4460 0002279  82.8573 277.2882 14.34214219353972
IRIDIUM 102             
1 41920U 17003D   23292.80985436  .00000481  00000+0  16477-3 0  9998
2 41920  86.3953 134.4036 0002326  85.0407 275.1054 14.34211468354055
IRIDIUM 105             
1 41921U 17003E   23292.92005797  .00000237  00000+0  77528-4 0  9999
2 41921  86.3921 102.7683 0001989  89.0753 271.0671 14.34224383355926
IRIDIUM 104             
1 41922U 17003F   23292.82255869  .00000349  00000+0  11763-3 0  9998
2 41922  86.3959 134.4259 0002046  79.9661 280.1765 14.34214364354045
IRIDIUM 114             
1 41923U 17003G   23292.48006412  .00000351  00000+0  11820-3 0  9996
2 41923  86.3957 134.5559 0002027  96.6579 263.4847 14.34220064353971
IRIDIUM 108             
1 41924U 17003H   23292.92696839  .00000235  00000+0  76869-4 0  9990
2 41924  86.3915 102.7057 0001804  95.3312 264.8089 14.34219214355890
